STARLINK-3994           
1 52633U 22052AM  25154.49532225 -.00001196  00000+0 -57100-4 0  9994
2 52633  53.2175  82.4728 0001290  97.2503 262.8636 15.08824929169224
STARLINK-3974           
1 52634U 22052AN  25154.77500215 -.00000670  00000+0 -24037-4 0  9999
2 52634  53.2175  81.2440 0001382  86.2393 273.8757 15.08832436169262
STARLINK-3978           
1 52635U 22052AP  25154.47783273 -.00000420  00000+0 -83095-5 0  9997
2 52635  53.2189  72.5537 0001569  97.2652 262.8519 15.08831870169350
STARLINK-3967           
1 52636U 22052AQ  25154.50268009 -.00000131  00000+0  98777-5 0  9998
2 52636  53.2188  82.4430 0001297  78.7596 281.3542 15.08838854169228
STARLINK-3961           
1 52637U 22052AR  25154.47414600 -.00000102  00000+0  11677-4 0  9996
2 52637  53.2174  72.5696 0001329  88.5579 271.5566 15.08837359169781
STARLINK-3941           
1 52638U 22052AS  25154.83019762 -.00000618  00000+0 -20757-4 0  9999
2 52638  53.2177  80.9706 0001379 101.1310 258.9838 15.08832381169275
STARLINK-3968           
1 52639U 22052AT  25154.79431097  .00000369  00000+0  41273-4 0  9991
2 52639  53.2179  71.1306 0001328  94.2737 265.8407 15.08836763169407
STARLINK-3977           
1 52640U 22052AU  25154.48152668 -.00001621  00000+0 -83808-4 0  9997
2 52640  53.2177  72.5631 0001452  87.8370 272.2788 15.08825213169358
STARLINK-3991           
1 52641U 22052AV  25154.08136957  .00000101  00000+0  24429-4 0  9991
2 52641  53.2175  74.5323 0001220  86.9126 273.2005 15.08835621168928
STARLINK-3971           
1 52642U 22052AW  25154.47047486  .00004858  00000+0  32321-3 0  9995
2 52642  53.2165  72.5861 0001396  88.5477 271.5675 15.08830989169358
STARLINK-3963           
1 52643U 22052AX  25154.77686046 -.00000271  00000+0  10602-5 0  9996
2 52643  53.2184  71.1773 0001358  96.4477 263.6669 15.08837120169408
STARLINK-3985           
1 52644U 22052AY  25154.79783339  .00008324  00000+0  53922-3 0  9998
2 52644  53.2166  71.1123 0001671  97.5456 262.5726 15.08925925169408
STARLINK-3973           
1 52645U 22052AZ  25154.19081237  .00000307  00000+0  37376-4 0  9990
2 52645  53.2180  73.9425 0001516  83.8912 276.2253 15.08823589169313
STARLINK-3832           
1 52646U 22052BA  25154.79058881  .00003389  00000+0  23076-3 0  9990
2 52646  53.2183  71.1859 0001650  96.0391 264.0789 15.08870863169400
STARLINK-3846           
1 52647U 22052BB  25154.18345087 -.00002579  00000+0 -14401-3 0  9995
2 52647  53.2193  73.9744 0002096 102.7911 257.3316 15.08830366169318
STARLINK-3854           
1 52648U 22052BC  25154.78329111 -.00002011  00000+0 -10838-3 0  9993
2 52648  53.2200  71.1786 0001220 100.4293 259.6837 15.08814791169407
STARLINK-3868           
1 52649U 22052BD  25154.49252853  .00000001  00000+0  18142-4 0  9992
2 52649  53.2180  72.3373 0001453  81.6952 278.4204 15.08839920169363
STARLINK-3891           
1 52650U 22052BE  25154.46037442 -.00001208  00000+0 -57849-4 0  9995
2 52650  53.2177  62.7336 0001437  82.1765 277.9390 15.08827962169120
STARLINK-4004           
1 52656U 22053A   25154.75524514  .00000595  00000+0  55474-4 0  9993
2 52656  53.2191 326.3145 0001477  94.9389 265.1772 15.08841241169002
STARLINK-4084           
1 52657U 22053B   25154.85831594 -.00007358  00000+0 -44461-3 0  9993
2 52657  53.2179 326.1606 0001414  85.5188 274.5966 15.08844645169317
STARLINK-4082           
1 52658U 22053C   25154.75797234  .00007346  00000+0  47938-3 0  9992
2 52658  53.2195 326.2915 0001327  98.8720 261.2423 15.08822358169129
STARLINK-3960           
1 52659U 22053D   25154.75427033  .00001316  00000+0  10072-3 0  9990
2 52659  53.2184 326.2594 0001380  93.1972 266.9178 15.08849102169122
STARLINK-4081           
1 52660U 22053E   25154.61813120  .00000105  00000+0  24667-4 0  9994
2 52660  53.2176 326.9191 0001327  92.3718 267.7426 15.08836833168980
STARLINK-4042           
1 52661U 22053F   25154.74692015  .00000371  00000+0  41384-4 0  9997
2 52661  53.2187 326.3409 0001397  93.4977 266.6175 15.08847681168932
STARLINK-4044           
1 52662U 22053G   25154.87205876 -.00000565  00000+0 -17432-4 0  9991
2 52662  53.2175 325.7794 0001296  90.6022 269.5119 15.08838739168954
STARLINK-4037           
1 52663U 22053H   25154.86838150 -.00001925  00000+0 -10291-3 0  9994
2 52663  53.2179 325.8002 0001493  87.8791 272.2373 15.08828475168951
STARLINK-4070           
1 52664U 22053J   25154.74323694  .00001125  00000+0  88713-4 0  9999
2 52664  53.2175 326.3581 0001344  92.2503 267.8643 15.08848792168934
STARLINK-4064           
1 52665U 22053K   25154.85732738  .00000774  00000+0  66711-4 0  9998
2 52665  53.2176 325.8479 0001242  88.4441 271.6693 15.08842032168952
STARLINK-4079           
1 52666U 22053L   25154.76159760 -.00000503  00000+0 -13480-4 0  9994
2 52666  53.2192 325.8910 0001400  95.7438 264.3713 15.08844850168945
STARLINK-4076           
1 52667U 22053M   25154.78741385  .00000593  00000+0  55371-4 0  9999
2 52667  53.2178 326.1619 0001220  86.2112 273.9020 15.08839627168947
STARLINK-4067           
1 52668U 22053N   25154.79476464 -.00000536  00000+0 -15623-4 0  9999
2 52668  53.2173 326.1280 0001204  83.9123 276.2006 15.08842578168944
STARLINK-3972           
1 52669U 22053P   25154.77638179 -.00000630  00000+0 -21491-4 0  9996
2 52669  53.2180 326.2117 0001103  89.8919 270.2199 15.08831681168938
STARLINK-4075           
1 52670U 22053Q   25154.53349287  .00000117  00000+0  25426-4 0  9991
2 52670  53.2178 327.3683 0001300  85.3815 274.7325 15.08843480168471
STARLINK-4071           
1 52671U 22053R   25154.50772314  .00000210  00000+0  31274-4 0  9992
2 52671  53.2178 327.4160 0001314  90.1830 269.9313 15.08840435168479
STARLINK-4073           
1 52672U 22053S   25154.84996104  .00001298  00000+0  99629-4 0  9990
2 52672  53.2177 325.8821 0001313  84.2884 275.8257 15.08846534168522
STARLINK-3976           
1 52673U 22053T   25154.69909593 -.00000102  00000+0  11671-4 0  9995
2 52673  53.2192 326.5579 0001297  92.3104 267.8037 15.08827296168503
STARLINK-3936           
1 52674U 22053U   25154.84627911  .00000790  00000+0  67672-4 0  9998
2 52674  53.2179 325.8969 0001205  91.1363 268.9767 15.08847064168526
STARLINK-3934           
1 52675U 22053V   25154.82880185  .00004010  00000+0  26970-3 0  9995
2 52675  53.2173 315.9771 0001368  91.2712 268.8436 15.08864005168640
STARLINK-4006           
1 52676U 22053W   25154.76899833  .00002202  00000+0  15639-3 0  9990
2 52676  53.2181 326.2440 0001279  85.2329 274.8809 15.08844679168507
STARLINK-4028           
1 52677U 22053X   25154.58335648  .00421908  00000+0  82220-2 0  9997
2 52677  53.2158 310.8858 0001109  75.2344   8.9245 15.45436109  5834
STARLINK-4074           
1 52678U 22053Y   25154.83985336  .00000120  00000+0  25638-4 0  9992
2 52678  53.2172 316.0305 0001332  82.7645 277.3498 15.08843916168649
STARLINK-4031           
1 52679U 22053Z   25154.61166604 -.00011820  00000+0 -72452-3 0  9994
2 52679  53.2189 316.9496 0001699  83.3610 276.7575 15.08901218169003
STARLINK-3774           
1 52680U 22053AA  25154.73677219  .00000799  00000+0  68306-4 0  9993
2 52680  53.2191 316.1567 0001324  91.1072 269.0072 15.08844431168631
STARLINK-4068           
1 52681U 22053AB  25154.87297979 -.00000603  00000+0 -19789-4 0  9997
2 52681  53.2189 315.7767 0001121  86.9509 273.1611 15.08832370168654
STARLINK-4017           
1 52682U 22053AC  25154.61905949 -.00000627  00000+0 -21320-4 0  9993
2 52682  53.2184 316.9186 0001382  91.3054 268.8097 15.08833510169020
STARLINK-4014           
1 52684U 22053AE  25154.74785011  .00000003  00000+0  18275-4 0  9996
2 52684  53.2178 316.3397 0001196  87.4369 272.6760 15.08832762168646
STARLINK-4029           
1 52685U 22053AF  25154.72576164  .00001746  00000+0  12776-3 0  9996
2 52685  53.2179 316.4359 0001340  90.7648 269.3497 15.08846617168638
STARLINK-4005           
1 52686U 22053AG  25154.16740945 -.00003553  00000+0 -20525-3 0  9996
2 52686  53.2185 319.2273 0001495  97.9488 262.1674 15.08837733168923
STARLINK-3981           
1 52687U 22053AH  25154.72208217  .00001326  00000+0  10135-3 0  9990
2 52687  53.2179 316.4548 0001345  90.1021 270.0125 15.08847024168634
STARLINK-4032           
1 52688U 22053AJ  25154.85086209  .00000834  00000+0  70448-4 0  9997
2 52688  53.2178 315.7587 0001370  93.4920 266.6229 15.08847707168657
STARLINK-4078           
1 52689U 22053AK  25154.58335648  .00155191  00000+0  67114-2 0  9993
2 52689  53.2176 313.7579 0000932 110.8982 185.2817 15.21348635  5818
STARLINK-4035           
1 52690U 22053AL  25154.72944444  .00004353  00000+0  29171-3 0  9996
2 52690  53.2181 316.4203 0001329  98.9898 261.1245 15.08805650168632
STARLINK-3993           
1 52692U 22053AN  25154.82509570  .00001942  00000+0  14003-3 0  9995
2 52692  53.2171 315.7237 0001377  89.5692 270.5458 15.08843726168651
STARLINK-3946           
1 52693U 22053AP  25154.43506447 -.00001078  00000+0 -49622-4 0  9991
2 52693  53.2186 317.7435 0001932  82.7156 277.4055 15.08830682168990
STARLINK-4072           
1 52694U 22053AQ  25154.44976983 -.00002655  00000+0 -14877-3 0  9994
2 52694  53.2181 317.6763 0001286  87.2082 272.9057 15.08840999168993
STARLINK-4041           
1 52695U 22053AR  25154.68663935  .00000460  00000+0  47007-4 0  9993
2 52695  53.2180 321.4095 0001365  97.7446 262.3701 15.08841593168565
STARLINK-4018           
1 52697U 22053AT  25154.58090787  .00000869  00000+0  72670-4 0  9990
2 52697  53.2184 322.0895 0001283  91.1577 268.9563 15.08836351168955
STARLINK-4030           
1 52698U 22053AU  25154.72347512 -.00001130  00000+0 -52910-4 0  9997
2 52698  53.2173 321.4376 0001029  95.8632 264.2477 15.08835710168560
STARLINK-3987           
1 52699U 22053AV  25154.43734805  .00002058  00000+0  14736-3 0  9992
2 52699  53.2172 312.7603 0001432  94.1286 265.9870 15.08840653169086
